{
  "type": "FeatureCollection",
  "features": [
    {
      "type": "Feature",
      "properties": {
        "norad_id": 31018,
        "name": "FENGYUN 1C DEB",
        "group": "fengyun-1c-debris",
        "lat": -45.59753656348543,
        "lon": -121.87142471898493,
        "alt_km": 837.8055793008189,
        "timestamp": "2025-12-06T18:50:10.448395+00:00",
        "meta_object_name": "FENGYUN 1C DEB",
        "meta_object_id": "1999-025BDL",
        "meta_epoch": "2025-12-05T04:29:24.445536",
        "meta_mean_motion": 14.16840133,
        "meta_eccentricity": 0.00596209,
        "meta_inclination": 99.0282,
        "meta_ra_of_asc_node": 65.8504,
        "meta_arg_of_pericenter": 146.9358,
        "meta_mean_anomaly": 213.5565,
        "meta_ephemeris_type": 0,
        "meta_classification_type": "U",
        "meta_norad_cat_id": 31018,
        "meta_element_set_no": 999,
        "meta_rev_at_epoch": 95948,
        "meta_bstar": 0.0036081808,
        "meta_mean_motion_dot": 7.317e-05,
        "meta_mean_motion_ddot": 0,
        "tle_line1": "1 31018U 99025BDL 25339.18708849  .00007317  00000+0  36082-2 0  9993",
        "tle_line2": "2 31018  99.0282  65.8504 0059620 146.9358 213.5565 14.16840133959484"
      },
      "geometry": {
        "type": "Point",
        "coordinates": [
          -121.87142471898493,
          -45.59753656348543
        ]
      }
    },
    {
      "type": "Feature",
      "properties": {
        "norad_id": 31019,
        "name": "FENGYUN 1C DEB",
        "group": "fengyun-1c-debris",
        "lat": -13.535704301448476,
        "lon": -1.3611847216132769,
        "alt_km": 1840.5871412633069,
        "timestamp": "2025-12-06T18:50:10.448405+00:00",
        "meta_object_name": "FENGYUN 1C DEB",
        "meta_object_id": "1999-025BDM",
        "meta_epoch": "2025-12-01T11:54:56.953728",
        "meta_mean_motion": 11.82937409,
        "meta_eccentricity": 0.11191603,
        "meta_inclination": 98.7033,
        "meta_ra_of_asc_node": 177.2685,
        "meta_arg_of_pericenter": 305.0923,
        "meta_mean_anomaly": 70.4876,
        "meta_ephemeris_type": 0,
        "meta_classification_type": "U",
        "meta_norad_cat_id": 31019,
        "meta_element_set_no": 999,
        "meta_rev_at_epoch": 55048,
        "meta_bstar": 0.0036567783,
        "meta_mean_motion_dot": 1.347e-05,
        "meta_mean_motion_ddot": 0,
        "tle_line1": "1 31019U 99025BDM 25335.49649252  .00001347  00000+0  36568-2 0  9992",
        "tle_line2": "2 31019  98.7033 177.2685 1119160 305.0923  70.4876 11.82937409550481"
      },
      "geometry": {
        "type": "Point",
        "coordinates": [
          -1.3611847216132769,
          -13.535704301448476
        ]
      }
    },
    {
      "type": "Feature",
      "properties": {
        "norad_id": 31021,
        "name": "FENGYUN 1C DEB",
        "group": "fengyun-1c-debris",
        "lat": -22.75268235266796,
        "lon": -92.47122141576895,
        "alt_km": 547.371172253198,
        "timestamp": "2025-12-06T18:50:10.448415+00:00",
        "meta_object_name": "FENGYUN 1C DEB",
        "meta_object_id": "1999-025BDP",
        "meta_epoch": "2025-11-23T02:39:04.527648",
        "meta_mean_motion": 14.74941254,
        "meta_eccentricity": 0.0268991,
        "meta_inclination": 98.348,
        "meta_ra_of_asc_node": 76.9426,
        "meta_arg_of_pericenter": 304.648,
        "meta_mean_anomaly": 52.9635,
        "meta_ephemeris_type": 0,
        "meta_classification_type": "U",
        "meta_norad_cat_id": 31021,
        "meta_element_set_no": 999,
        "meta_rev_at_epoch": 73143,
        "meta_bstar": 0.00041319973,
        "meta_mean_motion_dot": 4.94e-05,
        "meta_mean_motion_ddot": 0,
        "tle_line1": "1 31021U 99025BDP 25327.11046907  .00004940  00000+0  41320-3 0  9998",
        "tle_line2": "2 31021  98.3480  76.9426 0268991 304.6480  52.9635 14.74941254731434"
      },
      "geometry": {
        "type": "Point",
        "coordinates": [
          -92.47122141576895,
          -22.75268235266796
        ]
      }
    },
    {
      "type": "Feature",
      "properties": {
        "norad_id": 31022,
        "name": "FENGYUN 1C DEB",
        "group": "fengyun-1c-debris",
        "lat": 67.73052438838826,
        "lon": 68.47979479111265,
        "alt_km": 849.3675688308604,
        "timestamp": "2025-12-06T18:50:10.448448+00:00",
        "meta_object_name": "FENGYUN 1C DEB",
        "meta_object_id": "1999-025BDQ",
        "meta_epoch": "2025-11-29T22:14:32.342208",
        "meta_mean_motion": 13.9042789,
        "meta_eccentricity": 0.01095005,
        "meta_inclination": 99.5166,
        "meta_ra_of_asc_node": 217.2812,
        "meta_arg_of_pericenter": 156.1231,
        "meta_mean_anomaly": 204.506,
        "meta_ephemeris_type": 0,
        "meta_classification_type": "U",
        "meta_norad_cat_id": 31022,
        "meta_element_set_no": 999,
        "meta_rev_at_epoch": 61830,
        "meta_bstar": 0.00039044901,
        "meta_mean_motion_dot": 4.63e-06,
        "meta_mean_motion_ddot": 0,
        "tle_line1": "1 31022U 99025BDQ 25333.92676322  .00000463  00000+0  39045-3 0  9992",
        "tle_line2": "2 31022  99.5166 217.2812 0109500 156.1231 204.5060 13.90427890618301"
      },
      "geometry": {
        "type": "Point",
        "coordinates": [
          68.47979479111265,
          67.73052438838826
        ]
      }
    },
    {
      "type": "Feature",
      "properties": {
        "norad_id": 31024,
        "name": "FENGYUN 1C DEB",
        "group": "fengyun-1c-debris",
        "lat": 54.08671206842744,
        "lon": -118.713802076035,
        "alt_km": 813.5045038440712,
        "timestamp": "2025-12-06T18:50:10.448459+00:00",
        "meta_object_name": "FENGYUN 1C DEB",
        "meta_object_id": "1999-025BDS",
        "meta_epoch": "2025-12-06T05:03:20.333664",
        "meta_mean_motion": 14.20847233,
        "meta_eccentricity": 0.00748561,
        "meta_inclination": 99.0414,
        "meta_ra_of_asc_node": 253.3995,
        "meta_arg_of_pericenter": 143.1573,
        "meta_mean_anomaly": 217.4779,
        "meta_ephemeris_type": 0,
        "meta_classification_type": "U",
        "meta_norad_cat_id": 31024,
        "meta_element_set_no": 999,
        "meta_rev_at_epoch": 96611,
        "meta_bstar": 0.00049997444,
        "meta_mean_motion_dot": 1.066e-05,
        "meta_mean_motion_ddot": 0,
        "tle_line1": "1 31024U 99025BDS 25340.21065201  .00001066  00000+0  49997-3 0  9999",
        "tle_line2": "2 31024  99.0414 253.3995 0074856 143.1573 217.4779 14.20847233966113"
      },
      "geometry": {
        "type": "Point",
        "coordinates": [
          -118.713802076035,
          54.08671206842744
        ]
      }
    },
    {
      "type": "Feature",
      "properties": {
        "norad_id": 31025,
        "name": "FENGYUN 1C DEB",
        "group": "fengyun-1c-debris",
        "lat": -73.10059122123461,
        "lon": 121.36202744000539,
        "alt_km": 917.8706438464023,
        "timestamp": "2025-12-06T18:50:10.448481+00:00",
        "meta_object_name": "FENGYUN 1C DEB",
        "meta_object_id": "1999-025BDT",
        "meta_epoch": "2025-12-06T05:48:08.877888",
        "meta_mean_motion": 14.20516508,
        "meta_eccentricity": 0.01737917,
        "meta_inclination": 98.5768,
        "meta_ra_of_asc_node": 330.62,
        "meta_arg_of_pericenter": 31.6576,
        "meta_mean_anomaly": 329.4914,
        "meta_ephemeris_type": 0,
        "meta_classification_type": "U",
        "meta_norad_cat_id": 31025,
        "meta_element_set_no": 999,
        "meta_rev_at_epoch": 64273,
        "meta_bstar": 0.0012547401,
        "meta_mean_motion_dot": 3.096e-05,
        "meta_mean_motion_ddot": 0,
        "tle_line1": "1 31025U 99025BDT 25340.24176942  .00003096  00000+0  12547-2 0  9993",
        "tle_line2": "2 31025  98.5768 330.6200 0173791  31.6576 329.4914 14.20516508642732"
      },
      "geometry": {
        "type": "Point",
        "coordinates": [
          121.36202744000539,
          -73.10059122123461
        ]
      }
    },
    {
      "type": "Feature",
      "properties": {
        "norad_id": 31026,
        "name": "FENGYUN 1C DEB",
        "group": "fengyun-1c-debris",
        "lat": -22.361800557003924,
        "lon": -79.61621275915773,
        "alt_km": 1030.4360020263612,
        "timestamp": "2025-12-06T18:50:10.448492+00:00",
        "meta_object_name": "FENGYUN 1C DEB",
        "meta_object_id": "1999-025BDU",
        "meta_epoch": "2025-12-05T14:20:13.197408",
        "meta_mean_motion": 13.83394717,
        "meta_eccentricity": 0.01339877,
        "meta_inclination": 98.7779,
        "meta_ra_of_asc_node": 275.631,
        "meta_arg_of_pericenter": 201.9147,
        "meta_mean_anomaly": 343.8913,
        "meta_ephemeris_type": 0,
        "meta_classification_type": "U",
        "meta_norad_cat_id": 31026,
        "meta_element_set_no": 999,
        "meta_rev_at_epoch": 67927,
        "meta_bstar": 0.00026735766,
        "meta_mean_motion_dot": 2.75e-06,
        "meta_mean_motion_ddot": 0,
        "tle_line1": "1 31026U 99025BDU 25339.59737497  .00000275  00000+0  26736-3 0  9990",
        "tle_line2": "2 31026  98.7779 275.6310 0133987 201.9147 343.8913 13.83394717679278"
      },
      "geometry": {
        "type": "Point",
        "coordinates": [
          -79.61621275915773,
          -22.361800557003924
        ]
      }
    }
  ]
}